[Satellite]
VERSION=1.1
NAME=INTELSAT 705 (IS-705)
NICKNAME=INTELSAT 705 (IS-705)
TLE1=1 23528U 95013A   11059.24622279 -.00000217  00000-0  00000+0 0  1956
TLE2=2 23528   1.2223  75.4119 0019931 318.7574  26.5255  0.98976016 58292
